GLOBALSTAR M001         
1 25162U 98008A   24280.90840341 -.00000025  00000+0  55167-3 0  9990
2 25162  52.0062 350.4065 0001903  87.6444  83.9435 12.38195217212334
GLOBALSTAR M004         
1 25163U 98008B   24281.01231215 -.00000019  00000+0  46958-3 0  9999
2 25163  51.9983 106.5157 0003955  88.7550  77.7117 12.63374713229789
GLOBALSTAR M002         
1 25164U 98008C   24281.07006341 -.00000012  00000+0  12780-2 0  9994
2 25164  51.9995 154.8523 0002246  53.7733 306.3295 11.61505048154726
GLOBALSTAR M003         
1 25165U 98008D   24280.93885227  .00000042  00000+0  14009-2 0  9995
2 25165  51.9924 149.9054 0008363 139.8736 233.7839 12.12042301202511
GLOBALSTAR M006         
1 25307U 98023B   24280.89722920 -.00000026  00000+0  10205-2 0  9992
2 25307  51.9913 126.8416 0004114  22.0056 351.3036 11.58168167187483
GLOBALSTAR M008         
1 25309U 98023D   24281.23040381 -.00000013  00000+0  65049-3 0  9990
2 25309  51.9961 211.4320 0002970  12.8598 134.9665 12.36051287206878
